[{"OBJECT_NAME":"STARLINK-3287","OBJECT_ID":"2021-125S","EPOCH":"2025-08-09T20:37:51.354624","MEAN_MOTION":15.08841156,"ECCENTRICITY":0.0001234,"INCLINATION":53.2165,"RA_OF_ASC_NODE":120.0665,"ARG_OF_PERICENTER":84.2494,"MEAN_ANOMALY":275.8639,"EPHEMERIS_TYPE":0,"CLASSIFICATION_TYPE":"U","NORAD_CAT_ID":50172,"ELEMENT_SET_NO":999,"REV_AT_EPOCH":20414,"BSTAR":-4.8882e-5,"MEAN_MOTION_DOT":-1.066e-5,"MEAN_MOTION_DDOT":0},{"OBJECT_NAME":"STARLINK-3289","OBJECT_ID":"2021-125T","EPOCH":"2025-08-09T10:19:10.595136","MEAN_MOTION":15.0884727,"ECCENTRICITY":0.000117,"INCLINATION":53.2178,"RA_OF_ASC_NODE":112.0573,"ARG_OF_PERICENTER":93.8281,"MEAN_ANOMALY":266.2844,"EPHEMERIS_TYPE":0,"CLASSIFICATION_TYPE":"U","NORAD_CAT_ID":50173,"ELEMENT_SET_NO":999,"REV_AT_EPOCH":20470,"BSTAR":-2.5117e-7,"MEAN_MOTION_DOT":-2.92e-6,"MEAN_MOTION_DDOT":0},{"OBJECT_NAME":"STARLINK-3292","OBJECT_ID":"2021-125U","EPOCH":"2025-08-09T21:25:02.337024","MEAN_MOTION":15.08831369,"ECCENTRICITY":0.0001383,"INCLINATION":53.2169,"RA_OF_ASC_NODE":115.5275,"ARG_OF_PERICENTER":105.6221,"MEAN_ANOMALY":254.4924,"EPHEMERIS_TYPE":0,"CLASSIFICATION_TYPE":"U","NORAD_CAT_ID":50174,"ELEMENT_SET_NO":999,"REV_AT_EPOCH":20421,"BSTAR":0.00015187,"MEAN_MOTION_DOT":2.129e-5,"MEAN_MOTION_DDOT":0},{"OBJECT_NAME":"STARLINK-3291","OBJECT_ID":"2021-125V","EPOCH":"2025-08-09T20:53:46.431456","MEAN_MOTION":15.08833266,"ECCENTRICITY":0.0001757,"INCLINATION":53.2164,"RA_OF_ASC_NODE":120.0137,"ARG_OF_PERICENTER":103.0327,"MEAN_ANOMALY":257.0861,"EPHEMERIS_TYPE":0,"CLASSIFICATION_TYPE":"U","NORAD_CAT_ID":50175,"ELEMENT_SET_NO":999,"REV_AT_EPOCH":20413,"BSTAR":-0.00019018,"MEAN_MOTION_DOT":-3.313e-5,"MEAN_MOTION_DDOT":0},{"OBJECT_NAME":"STARLINK-3293","OBJECT_ID":"2021-125W","EPOCH":"2025-08-09T10:54:56.309760","MEAN_MOTION":15.08840279,"ECCENTRICITY":0.0001444,"INCLINATION":53.2172,"RA_OF_ASC_NODE":121.8802,"ARG_OF_PERICENTER":87.2948,"MEAN_ANOMALY":272.821,"EPHEMERIS_TYPE":0,"CLASSIFICATION_TYPE":"U","NORAD_CAT_ID":50176,"ELEMENT_SET_NO":999,"REV_AT_EPOCH":20460,"BSTAR":1.4449e-5,"MEAN_MOTION_DOT":-5.8e-7,"MEAN_MOTION_DDOT":0},{"OBJECT_NAME":"STARLINK-3282","OBJECT_ID":"2021-125X","EPOCH":"2025-08-09T03:13:54.019200","MEAN_MOTION":15.08842264,"ECCENTRICITY":0.0001417,"INCLINATION":53.2173,"RA_OF_ASC_NODE":123.3175,"ARG_OF_PERICENTER":95.5287,"MEAN_ANOMALY":264.5867,"EPHEMERIS_TYPE":0,"CLASSIFICATION_TYPE":"U","NORAD_CAT_ID":50177,"ELEMENT_SET_NO":999,"REV_AT_EPOCH":20451,"BSTAR":1.58e-5,"MEAN_MOTION_DOT":-3.6e-7,"MEAN_MOTION_DDOT":0},{"OBJECT_NAME":"STARLINK-3284","OBJECT_ID":"2021-125Y","EPOCH":"2025-08-09T03:31:09.117120","MEAN_MOTION":15.08840668,"ECCENTRICITY":0.0001519,"INCLINATION":53.2176,"RA_OF_ASC_NODE":123.1196,"ARG_OF_PERICENTER":106.8427,"MEAN_ANOMALY":253.2732,"EPHEMERIS_TYPE":0,"CLASSIFICATION_TYPE":"U","NORAD_CAT_ID":50178,"ELEMENT_SET_NO":999,"REV_AT_EPOCH":20455,"BSTAR":4.4248e-5,"MEAN_MOTION_DOT":4.16e-6,"MEAN_MOTION_DDOT":0},{"OBJECT_NAME":"STARLINK-3283","OBJECT_ID":"2021-125Z","EPOCH":"2025-08-09T20:32:33.132192","MEAN_MOTION":15.08840355,"ECCENTRICITY":0.0001925,"INCLINATION":53.2144,"RA_OF_ASC_NODE":120.0792,"ARG_OF_PERICENTER":88.3695,"MEAN_ANOMALY":271.7518,"EPHEMERIS_TYPE":0,"CLASSIFICATION_TYPE":"U","NORAD_CAT_ID":50179,"ELEMENT_SET_NO":999,"REV_AT_EPOCH":20413,"BSTAR":-1.2366e-5,"MEAN_MOTION_DOT":-4.85e-6,"MEAN_MOTION_DDOT":0},{"OBJECT_NAME":"STARLINK-3265","OBJECT_ID":"2021-125AA","EPOCH":"2025-08-09T10:40:25.172256","MEAN_MOTION":15.08834656,"ECCENTRICITY":0.0001665,"INCLINATION":53.2181,"RA_OF_ASC_NODE":121.9343,"ARG_OF_PERICENTER":84.6562,"MEAN_ANOMALY":275.462,"EPHEMERIS_TYPE":0,"CLASSIFICATION_TYPE":"U","NORAD_CAT_ID":50180,"ELEMENT_SET_NO":999,"REV_AT_EPOCH":20460,"BSTAR":0.00022497,"MEAN_MOTION_DOT":3.294e-5,"MEAN_MOTION_DDOT":0},{"OBJECT_NAME":"STARLINK-3285","OBJECT_ID":"2021-125AB","EPOCH":"2025-08-09T21:37:31.153728","MEAN_MOTION":15.08835411,"ECCENTRICITY":0.0001158,"INCLINATION":53.2171,"RA_OF_ASC_NODE":119.8852,"ARG_OF_PERICENTER":92.1473,"MEAN_ANOMALY":267.9652,"EPHEMERIS_TYPE":0,"CLASSIFICATION_TYPE":"U","NORAD_CAT_ID":50181,"ELEMENT_SET_NO":999,"REV_AT_EPOCH":20415,"BSTAR":0.00025389,"MEAN_MOTION_DOT":3.755e-5,"MEAN_MOTION_DDOT":0},{"OBJECT_NAME":"STARLINK-3277","OBJECT_ID":"2021-125AC","EPOCH":"2025-08-09T21:04:20.110656","MEAN_MOTION":15.08832557,"ECCENTRICITY":0.0001264,"INCLINATION":53.2172,"RA_OF_ASC_NODE":119.8263,"ARG_OF_PERICENTER":91.4403,"MEAN_ANOMALY":268.6734,"EPHEMERIS_TYPE":0,"CLASSIFICATION_TYPE":"U","NORAD_CAT_ID":50182,"ELEMENT_SET_NO":999,"REV_AT_EPOCH":20414,"BSTAR":3.8967e-5,"MEAN_MOTION_DOT":3.32e-6,"MEAN_MOTION_DDOT":0},{"OBJECT_NAME":"STARLINK-3281","OBJECT_ID":"2021-125AD","EPOCH":"2025-08-09T21:30:51.376608","MEAN_MOTION":15.0883109,"ECCENTRICITY":0.0001571,"INCLINATION":53.2177,"RA_OF_ASC_NODE":119.8976,"ARG_OF_PERICENTER":92.9733,"MEAN_ANOMALY":267.1439,"EPHEMERIS_TYPE":0,"CLASSIFICATION_TYPE":"U","NORAD_CAT_ID":50183,"ELEMENT_SET_NO":999,"REV_AT_EPOCH":20154,"BSTAR":-3.7925e-6,"MEAN_MOTION_DOT":-3.48e-6,"MEAN_MOTION_DDOT":0},{"OBJECT_NAME":"STARLINK-3279","OBJECT_ID":"2021-125AF","EPOCH":"2025-08-09T10:39:02.640384","MEAN_MOTION":15.0885138,"ECCENTRICITY":0.0001618,"INCLINATION":53.2175,"RA_OF_ASC_NODE":121.9678,"ARG_OF_PERICENTER":78.6128,"MEAN_ANOMALY":281.5046,"EPHEMERIS_TYPE":0,"CLASSIFICATION_TYPE":"U","NORAD_CAT_ID":50185,"ELEMENT_SET_NO":999,"REV_AT_EPOCH":20456,"BSTAR":-1.8709e-5,"MEAN_MOTION_DOT":-5.86e-6,"MEAN_MOTION_DDOT":0},{"OBJECT_NAME":"STARLINK-3274","OBJECT_ID":"2021-125AG","EPOCH":"2025-08-09T04:32:04.576704","MEAN_MOTION":15.08844765,"ECCENTRICITY":0.0001443,"INCLINATION":53.2166,"RA_OF_ASC_NODE":133.0719,"ARG_OF_PERICENTER":88.3893,"MEAN_ANOMALY":271.7264,"EPHEMERIS_TYPE":0,"CLASSIFICATION_TYPE":"U","NORAD_CAT_ID":50186,"ELEMENT_SET_NO":999,"REV_AT_EPOCH":20437,"BSTAR":-4.3811e-5,"MEAN_MOTION_DOT":-9.85e-6,"MEAN_MOTION_DDOT":0},{"OBJECT_NAME":"STARLINK-3272","OBJECT_ID":"2021-125AH","EPOCH":"2025-08-09T21:05:40.563744","MEAN_MOTION":15.08838099,"ECCENTRICITY":0.0001967,"INCLINATION":53.2178,"RA_OF_ASC_NODE":109.9747,"ARG_OF_PERICENTER":88.0831,"MEAN_ANOMALY":272.0386,"EPHEMERIS_TYPE":0,"CLASSIFICATION_TYPE":"U","NORAD_CAT_ID":50187,"ELEMENT_SET_NO":999,"REV_AT_EPOCH":20167,"BSTAR":5.107e-5,"MEAN_MOTION_DOT":5.25e-6,"MEAN_MOTION_DDOT":0},{"OBJECT_NAME":"STARLINK-3275","OBJECT_ID":"2021-125AJ","EPOCH":"2025-08-09T21:35:49.278624","MEAN_MOTION":16.09534649,"ECCENTRICITY":0.0014393,"INCLINATION":53.1868,"RA_OF_ASC_NODE":352.6145,"ARG_OF_PERICENTER":316.422,"MEAN_ANOMALY":130.4372,"EPHEMERIS_TYPE":0,"CLASSIFICATION_TYPE":"U","NORAD_CAT_ID":50188,"ELEMENT_SET_NO":999,"REV_AT_EPOCH":20332,"BSTAR":0.0026454,"MEAN_MOTION_DOT":0.02313886,"MEAN_MOTION_DDOT":0.0054117},{"OBJECT_NAME":"STARLINK-3276","OBJECT_ID":"2021-125AK","EPOCH":"2025-08-09T10:08:38.545440","MEAN_MOTION":15.08827315,"ECCENTRICITY":0.0001369,"INCLINATION":53.2149,"RA_OF_ASC_NODE":122.0357,"ARG_OF_PERICENTER":91.8818,"MEAN_ANOMALY":268.2331,"EPHEMERIS_TYPE":0,"CLASSIFICATION_TYPE":"U","NORAD_CAT_ID":50189,"ELEMENT_SET_NO":999,"REV_AT_EPOCH":20459,"BSTAR":0.00030127,"MEAN_MOTION_DOT":4.508e-5,"MEAN_MOTION_DDOT":0},{"OBJECT_NAME":"STARLINK-3268","OBJECT_ID":"2021-125AL","EPOCH":"2025-08-09T09:42:04.456800","MEAN_MOTION":15.08842035,"ECCENTRICITY":0.0001207,"INCLINATION":53.2177,"RA_OF_ASC_NODE":112.1094,"ARG_OF_PERICENTER":85.6354,"MEAN_ANOMALY":274.4776,"EPHEMERIS_TYPE":0,"CLASSIFICATION_TYPE":"U","NORAD_CAT_ID":50190,"ELEMENT_SET_NO":999,"REV_AT_EPOCH":20468,"BSTAR":-0.00013774,"MEAN_MOTION_DOT":-2.479e-5,"MEAN_MOTION_DDOT":0},{"OBJECT_NAME":"STARLINK-3273","OBJECT_ID":"2021-125AM","EPOCH":"2025-08-09T03:33:46.310688","MEAN_MOTION":15.08845537,"ECCENTRICITY":0.0001383,"INCLINATION":53.2173,"RA_OF_ASC_NODE":133.2581,"ARG_OF_PERICENTER":85.724,"MEAN_ANOMALY":274.391,"EPHEMERIS_TYPE":0,"CLASSIFICATION_TYPE":"U","NORAD_CAT_ID":50191,"ELEMENT_SET_NO":999,"REV_AT_EPOCH":20436,"BSTAR":9.0126e-5,"MEAN_MOTION_DOT":1.147e-5,"MEAN_MOTION_DDOT":0},{"OBJECT_NAME":"STARLINK-3259","OBJECT_ID":"2021-125AN","EPOCH":"2025-08-09T09:36:46.211904","MEAN_MOTION":15.08843465,"ECCENTRICITY":0.0001442,"INCLINATION":53.2169,"RA_OF_ASC_NODE":112.1249,"ARG_OF_PERICENTER":79.784,"MEAN_ANOMALY":280.3314,"EPHEMERIS_TYPE":0,"CLASSIFICATION_TYPE":"U","NORAD_CAT_ID":50192,"ELEMENT_SET_NO":999,"REV_AT_EPOCH":20468,"BSTAR":6.249e-5,"MEAN_MOTION_DOT":7.07e-6,"MEAN_MOTION_DDOT":0},{"OBJECT_NAME":"STARLINK-3261","OBJECT_ID":"2021-125AP","EPOCH":"2025-08-09T21:00:22.954752","MEAN_MOTION":15.08831312,"ECCENTRICITY":0.0001396,"INCLINATION":53.2171,"RA_OF_ASC_NODE":109.9915,"ARG_OF_PERICENTER":81.9776,"MEAN_ANOMALY":278.1374,"EPHEMERIS_TYPE":0,"CLASSIFICATION_TYPE":"U","NORAD_CAT_ID":50193,"ELEMENT_SET_NO":999,"REV_AT_EPOCH":20427,"BSTAR":3.8032e-6,"MEAN_MOTION_DOT":-2.27e-6,"MEAN_MOTION_DDOT":0},{"OBJECT_NAME":"STARLINK-3269","OBJECT_ID":"2021-125AQ","EPOCH":"2025-08-09T08:09:16.329312","MEAN_MOTION":15.41226031,"ECCENTRICITY":0.0001939,"INCLINATION":53.2236,"RA_OF_ASC_NODE":81.7853,"ARG_OF_PERICENTER":104.2652,"MEAN_ANOMALY":255.857,"EPHEMERIS_TYPE":0,"CLASSIFICATION_TYPE":"U","NORAD_CAT_ID":50194,"ELEMENT_SET_NO":999,"REV_AT_EPOCH":20516,"BSTAR":0.00079518,"MEAN_MOTION_DOT":0.00033279,"MEAN_MOTION_DDOT":0},{"OBJECT_NAME":"STARLINK-3266","OBJECT_ID":"2021-125AR","EPOCH":"2025-08-09T09:47:22.293024","MEAN_MOTION":15.08838119,"ECCENTRICITY":0.0001452,"INCLINATION":53.2169,"RA_OF_ASC_NODE":112.0915,"ARG_OF_PERICENTER":82.4833,"MEAN_ANOMALY":277.6324,"EPHEMERIS_TYPE":0,"CLASSIFICATION_TYPE":"U","NORAD_CAT_ID":50195,"ELEMENT_SET_NO":999,"REV_AT_EPOCH":20468,"BSTAR":0.000216,"MEAN_MOTION_DOT":3.151e-5,"MEAN_MOTION_DDOT":0}]
